[{"OBJECT_NAME":"FOX-1A (AO-85)","OBJECT_ID":"2015-058D","EPOCH":"2026-03-05T16:48:36.832320","MEAN_MOTION":14.90314048,"ECCENTRICITY":0.0129073,"INCLINATION":64.7739,"RA_OF_ASC_NODE":240.4268,"ARG_OF_PERICENTER":97.5167,"MEAN_ANOMALY":264.0629,"EPHEMERIS_TYPE":0,"CLASSIFICATION_TYPE":"U","NORAD_CAT_ID":40967,"ELEMENT_SET_NO":999,"REV_AT_EPOCH":9814,"BSTAR":0.0004779,"MEAN_MOTION_DOT":5.287e-5,"MEAN_MOTION_DDOT":0},{"OBJECT_NAME":"SINOD-D 1","OBJECT_ID":"2015-058E","EPOCH":"2026-03-05T15:01:48.121824","MEAN_MOTION":14.9499586,"ECCENTRICITY":0.0117458,"INCLINATION":64.7751,"RA_OF_ASC_NODE":223.0011,"ARG_OF_PERICENTER":94.8707,"MEAN_ANOMALY":266.5829,"EPHEMERIS_TYPE":0,"CLASSIFICATION_TYPE":"U","NORAD_CAT_ID":40968,"ELEMENT_SET_NO":999,"REV_AT_EPOCH":10117,"BSTAR":0.00060153,"MEAN_MOTION_DOT":7.404e-5,"MEAN_MOTION_DDOT":0},{"OBJECT_NAME":"ELEKTRO-L 2","OBJECT_ID":"2015-074A","EPOCH":"2026-03-05T13:36:32.133312","MEAN_MOTION":1.00270857,"ECCENTRICITY":0.0003378,"INCLINATION":6.4339,"RA_OF_ASC_NODE":71.7988,"ARG_OF_PERICENTER":239.1004,"MEAN_ANOMALY":42.0209,"EPHEMERIS_TYPE":0,"CLASSIFICATION_TYPE":"U","NORAD_CAT_ID":41105,"ELEMENT_SET_NO":999,"REV_AT_EPOCH":3746,"BSTAR":0,"MEAN_MOTION_DOT":-1.22e-6,"MEAN_MOTION_DDOT":0},{"OBJECT_NAME":"DAMPE","OBJECT_ID":"2015-078A","EPOCH":"2026-03-05T17:55:23.437056","MEAN_MOTION":15.30480122,"ECCENTRICITY":0.0013884,"INCLINATION":97.4578,"RA_OF_ASC_NODE":69.717,"ARG_OF_PERICENTER":83.5774,"MEAN_ANOMALY":276.7047,"EPHEMERIS_TYPE":0,"CLASSIFICATION_TYPE":"U","NORAD_CAT_ID":41173,"ELEMENT_SET_NO":999,"REV_AT_EPOCH":56872,"BSTAR":5.0027e-5,"MEAN_MOTION_DOT":1.4e-5,"MEAN_MOTION_DDOT":0},{"OBJECT_NAME":"ORBCOMM FM114","OBJECT_ID":"2015-081A","EPOCH":"2026-03-05T05:11:37.047264","MEAN_MOTION":14.58721704,"ECCENTRICITY":0.0001234,"INCLINATION":47.0042,"RA_OF_ASC_NODE":133.5177,"ARG_OF_PERICENTER":85.6971,"MEAN_ANOMALY":274.4056,"EPHEMERIS_TYPE":0,"CLASSIFICATION_TYPE":"U","NORAD_CAT_ID":41179,"ELEMENT_SET_NO":999,"REV_AT_EPOCH":54257,"BSTAR":0.00021854,"MEAN_MOTION_DOT":8.59e-6,"MEAN_MOTION_DDOT":0},{"OBJECT_NAME":"ORBCOMM FM110","OBJECT_ID":"2015-081D","EPOCH":"2026-03-05T13:09:14.867136","MEAN_MOTION":14.58726599,"ECCENTRICITY":0.00035,"INCLINATION":47.0014,"RA_OF_ASC_NODE":131.4233,"ARG_OF_PERICENTER":302.6378,"MEAN_ANOMALY":57.417,"EPHEMERIS_TYPE":0,"CLASSIFICATION_TYPE":"U","NORAD_CAT_ID":41182,"ELEMENT_SET_NO":999,"REV_AT_EPOCH":54249,"BSTAR":0.00032718,"MEAN_MOTION_DOT":1.371e-5,"MEAN_MOTION_DDOT":0},{"OBJECT_NAME":"ORBCOMM FM112","OBJECT_ID":"2015-081F","EPOCH":"2026-03-05T07:28:47.597664","MEAN_MOTION":14.58721068,"ECCENTRICITY":9.83e-5,"INCLINATION":46.9998,"RA_OF_ASC_NODE":41.3561,"ARG_OF_PERICENTER":62.9653,"MEAN_ANOMALY":297.1333,"EPHEMERIS_TYPE":0,"CLASSIFICATION_TYPE":"U","NORAD_CAT_ID":41184,"ELEMENT_SET_NO":999,"REV_AT_EPOCH":54378,"BSTAR":0.00025772,"MEAN_MOTION_DOT":1.044e-5,"MEAN_MOTION_DDOT":0},{"OBJECT_NAME":"ORBCOMM FM113","OBJECT_ID":"2015-081G","EPOCH":"2026-03-05T15:09:07.934112","MEAN_MOTION":14.58722995,"ECCENTRICITY":5.67e-5,"INCLINATION":47.0015,"RA_OF_ASC_NODE":40.2122,"ARG_OF_PERICENTER":78.0047,"MEAN_ANOMALY":282.0903,"EPHEMERIS_TYPE":0,"CLASSIFICATION_TYPE":"U","NORAD_CAT_ID":41185,"ELEMENT_SET_NO":999,"REV_AT_EPOCH":54381,"BSTAR":0.00025616,"MEAN_MOTION_DOT":1.037e-5,"MEAN_MOTION_DDOT":0},{"OBJECT_NAME":"ORBCOMM FM108","OBJECT_ID":"2015-081J","EPOCH":"2026-03-05T15:53:57.716448","MEAN_MOTION":14.58735945,"ECCENTRICITY":0.000217,"INCLINATION":47.0057,"RA_OF_ASC_NODE":311.6058,"ARG_OF_PERICENTER":71.9746,"MEAN_ANOMALY":288.1376,"EPHEMERIS_TYPE":0,"CLASSIFICATION_TYPE":"U","NORAD_CAT_ID":41187,"ELEMENT_SET_NO":999,"REV_AT_EPOCH":54496,"BSTAR":0.00030782,"MEAN_MOTION_DOT":1.28e-5,"MEAN_MOTION_DDOT":0},{"OBJECT_NAME":"ORBCOMM FM117","OBJECT_ID":"2015-081K","EPOCH":"2026-03-05T01:55:17.222880","MEAN_MOTION":14.58725522,"ECCENTRICITY":0.00025137,"INCLINATION":47.002,"RA_OF_ASC_NODE":313.0271,"ARG_OF_PERICENTER":78.725,"MEAN_ANOMALY":281.3918,"EPHEMERIS_TYPE":0,"CLASSIFICATION_TYPE":"U","NORAD_CAT_ID":41188,"ELEMENT_SET_NO":999,"REV_AT_EPOCH":54492,"BSTAR":0.00027532432,"MEAN_MOTION_DOT":1.127e-5,"MEAN_MOTION_DDOT":0},{"OBJECT_NAME":"ORBCOMM FM116","OBJECT_ID":"2015-081L","EPOCH":"2026-03-05T08:02:08.561184","MEAN_MOTION":14.58716965,"ECCENTRICITY":0.0002628,"INCLINATION":47.003,"RA_OF_ASC_NODE":41.6041,"ARG_OF_PERICENTER":297.8655,"MEAN_ANOMALY":62.1965,"EPHEMERIS_TYPE":0,"CLASSIFICATION_TYPE":"U","NORAD_CAT_ID":41189,"ELEMENT_SET_NO":999,"REV_AT_EPOCH":54377,"BSTAR":0.00029333,"MEAN_MOTION_DOT":1.211e-5,"MEAN_MOTION_DDOT":0},{"OBJECT_NAME":"CHUBUSAT-2","OBJECT_ID":"2016-012B","EPOCH":"2026-03-05T00:27:48.809088","MEAN_MOTION":15.19666998,"ECCENTRICITY":0.00088466,"INCLINATION":30.997,"RA_OF_ASC_NODE":284.4066,"ARG_OF_PERICENTER":92.4557,"MEAN_ANOMALY":267.7097,"EPHEMERIS_TYPE":0,"CLASSIFICATION_TYPE":"U","NORAD_CAT_ID":41338,"ELEMENT_SET_NO":999,"REV_AT_EPOCH":55255,"BSTAR":0.00038807949,"MEAN_MOTION_DOT":8.616e-5,"MEAN_MOTION_DDOT":0},{"OBJECT_NAME":"CHUBUSAT-3","OBJECT_ID":"2016-012C","EPOCH":"2026-03-05T18:45:16.085952","MEAN_MOTION":15.17571348,"ECCENTRICITY":0.0009225,"INCLINATION":31.0043,"RA_OF_ASC_NODE":286.6316,"ARG_OF_PERICENTER":90.2078,"MEAN_ANOMALY":269.9619,"EPHEMERIS_TYPE":0,"CLASSIFICATION_TYPE":"U","NORAD_CAT_ID":41339,"ELEMENT_SET_NO":999,"REV_AT_EPOCH":55247,"BSTAR":0.0003628,"MEAN_MOTION_DOT":7.59e-5,"MEAN_MOTION_DDOT":0},{"OBJECT_NAME":"HORYU-4","OBJECT_ID":"2016-012D","EPOCH":"2026-03-05T10:36:51.115392","MEAN_MOTION":15.62025345,"ECCENTRICITY":0.0002347,"INCLINATION":30.9912,"RA_OF_ASC_NODE":97.7021,"ARG_OF_PERICENTER":105.9687,"MEAN_ANOMALY":254.1224,"EPHEMERIS_TYPE":0,"CLASSIFICATION_TYPE":"U","NORAD_CAT_ID":41340,"ELEMENT_SET_NO":999,"REV_AT_EPOCH":55444,"BSTAR":0.001094,"MEAN_MOTION_DOT":0.00100607,"MEAN_MOTION_DDOT":0},{"OBJECT_NAME":"ZIYUAN 3-02 (ZY 3-02)","OBJECT_ID":"2016-033A","EPOCH":"2026-03-05T19:03:39.497760","MEAN_MOTION":15.21486369,"ECCENTRICITY":0.0011182,"INCLINATION":97.3907,"RA_OF_ASC_NODE":142.5196,"ARG_OF_PERICENTER":314.3422,"MEAN_ANOMALY":45.6897,"EPHEMERIS_TYPE":0,"CLASSIFICATION_TYPE":"U","NORAD_CAT_ID":41556,"ELEMENT_SET_NO":999,"REV_AT_EPOCH":54226,"BSTAR":0.00036557,"MEAN_MOTION_DOT":8.169e-5,"MEAN_MOTION_DDOT":0},{"OBJECT_NAME":"CARTOSAT-2C","OBJECT_ID":"2016-040A","EPOCH":"2026-03-05T17:16:09.938208","MEAN_MOTION":15.19176431,"ECCENTRICITY":0.0010089,"INCLINATION":97.461,"RA_OF_ASC_NODE":126.0523,"ARG_OF_PERICENTER":132.8401,"MEAN_ANOMALY":227.3682,"EPHEMERIS_TYPE":0,"CLASSIFICATION_TYPE":"U","NORAD_CAT_ID":41599,"ELEMENT_SET_NO":999,"REV_AT_EPOCH":53800,"BSTAR":0.00028641,"MEAN_MOTION_DOT":5.964e-5,"MEAN_MOTION_DDOT":0},{"OBJECT_NAME":"LAPAN-A3","OBJECT_ID":"2016-040E","EPOCH":"2026-03-05T18:43:49.412064","MEAN_MOTION":15.32338628,"ECCENTRICITY":0.0011496,"INCLINATION":97.1479,"RA_OF_ASC_NODE":64.3891,"ARG_OF_PERICENTER":35.7083,"MEAN_ANOMALY":324.4926,"EPHEMERIS_TYPE":0,"CLASSIFICATION_TYPE":"U","NORAD_CAT_ID":41603,"ELEMENT_SET_NO":999,"REV_AT_EPOCH":53897,"BSTAR":0.00019857,"MEAN_MOTION_DOT":6.137e-5,"MEAN_MOTION_DDOT":0}]
